{
  "type": "FeatureCollection",
  "features": [
    {
      "type": "Feature",
      "properties": {
        "norad_id": 57400,
        "name": "TIANMU-1 08",
        "group": "weather",
        "lat": 66.55086050548752,
        "lon": 9.524283625962264,
        "alt_km": 472.1762439507347,
        "timestamp": "2025-12-02T19:35:50.205622+00:00",
        "meta_object_name": "TIANMU-1 08",
        "meta_object_id": "2023-101B",
        "meta_epoch": "2025-12-02T11:26:34.605888",
        "meta_mean_motion": 15.27820508,
        "meta_eccentricity": 0.0007441,
        "meta_inclination": 97.2887,
        "meta_ra_of_asc_node": 26.3543,
        "meta_arg_of_pericenter": 112.859,
        "meta_mean_anomaly": 247.3436,
        "meta_ephemeris_type": 0,
        "meta_classification_type": "U",
        "meta_norad_cat_id": 57400,
        "meta_element_set_no": 999,
        "meta_rev_at_epoch": 13158,
        "meta_bstar": 0.00034518,
        "meta_mean_motion_dot": 9.315e-05,
        "meta_mean_motion_ddot": 0,
        "tle_line1": "1 57400U 23101B   25336.47678942  .00009315  00000+0  34518-3 0  9990",
        "tle_line2": "2 57400  97.2887  26.3543 0007441 112.8590 247.3436 15.27820508131589"
      },
      "geometry": {
        "type": "Point",
        "coordinates": [
          9.524283625962264,
          66.55086050548752
        ]
      }
    },
    {
      "type": "Feature",
      "properties": {
        "norad_id": 57401,
        "name": "TIANMU-1 09",
        "group": "weather",
        "lat": 40.00118428138009,
        "lon": -147.6326920552136,
        "alt_km": 475.1760265460898,
        "timestamp": "2025-12-02T19:35:50.205632+00:00",
        "meta_object_name": "TIANMU-1 09",
        "meta_object_id": "2023-101C",
        "meta_epoch": "2025-12-02T11:07:47.474688",
        "meta_mean_motion": 15.27841964,
        "meta_eccentricity": 0.0006723,
        "meta_inclination": 97.2844,
        "meta_ra_of_asc_node": 25.8606,
        "meta_arg_of_pericenter": 111.886,
        "meta_mean_anomaly": 248.3095,
        "meta_ephemeris_type": 0,
        "meta_classification_type": "U",
        "meta_norad_cat_id": 57401,
        "meta_element_set_no": 999,
        "meta_rev_at_epoch": 13158,
        "meta_bstar": 0.00034705,
        "meta_mean_motion_dot": 9.37e-05,
        "meta_mean_motion_ddot": 0,
        "tle_line1": "1 57401U 23101C   25336.46374392  .00009370  00000+0  34705-3 0  9991",
        "tle_line2": "2 57401  97.2844  25.8606 0006723 111.8860 248.3095 15.27841964131589"
      },
      "geometry": {
        "type": "Point",
        "coordinates": [
          -147.6326920552136,
          40.00118428138009
        ]
      }
    },
    {
      "type": "Feature",
      "properties": {
        "norad_id": 57402,
        "name": "TIANMU-1 10",
        "group": "weather",
        "lat": -47.87260361014065,
        "lon": 35.18452427528964,
        "alt_km": 494.628558870123,
        "timestamp": "2025-12-02T19:35:50.205642+00:00",
        "meta_object_name": "TIANMU-1 10",
        "meta_object_id": "2023-101D",
        "meta_epoch": "2025-12-02T11:56:58.776864",
        "meta_mean_motion": 15.27833026,
        "meta_eccentricity": 0.0008461,
        "meta_inclination": 97.2925,
        "meta_ra_of_asc_node": 26.7329,
        "meta_arg_of_pericenter": 113.0705,
        "meta_mean_anomaly": 247.1428,
        "meta_ephemeris_type": 0,
        "meta_classification_type": "U",
        "meta_norad_cat_id": 57402,
        "meta_element_set_no": 999,
        "meta_rev_at_epoch": 13158,
        "meta_bstar": 0.00036555,
        "meta_mean_motion_dot": 9.875e-05,
        "meta_mean_motion_ddot": 0,
        "tle_line1": "1 57402U 23101D   25336.49790251  .00009875  00000+0  36555-3 0  9996",
        "tle_line2": "2 57402  97.2925  26.7329 0008461 113.0705 247.1428 15.27833026131582"
      },
      "geometry": {
        "type": "Point",
        "coordinates": [
          35.18452427528964,
          -47.87260361014065
        ]
      }
    },
    {
      "type": "Feature",
      "properties": {
        "norad_id": 57490,
        "name": "FENGYUN 3F",
        "group": "weather",
        "lat": 72.33796673613602,
        "lon": -105.9520646906618,
        "alt_km": 818.2674505917839,
        "timestamp": "2025-12-02T19:35:50.205656+00:00",
        "meta_object_name": "FENGYUN 3F",
        "meta_object_id": "2023-111A",
        "meta_epoch": "2025-12-02T12:20:16.284768",
        "meta_mean_motion": 14.19889149,
        "meta_eccentricity": 7.07e-05,
        "meta_inclination": 98.7096,
        "meta_ra_of_asc_node": 44.9719,
        "meta_arg_of_pericenter": 84.9132,
        "meta_mean_anomaly": 275.2125,
        "meta_ephemeris_type": 0,
        "meta_classification_type": "U",
        "meta_norad_cat_id": 57490,
        "meta_element_set_no": 999,
        "meta_rev_at_epoch": 12095,
        "meta_bstar": 8.5039e-05,
        "meta_mean_motion_dot": 1.37e-06,
        "meta_mean_motion_ddot": 0,
        "tle_line1": "1 57490U 23111A   25336.51407737  .00000137  00000+0  85039-4 0  9995",
        "tle_line2": "2 57490  98.7096  44.9719 0000707  84.9132 275.2125 14.19889149120956"
      },
      "geometry": {
        "type": "Point",
        "coordinates": [
          -105.9520646906618,
          72.33796673613602
        ]
      }
    },
    {
      "type": "Feature",
      "properties": {
        "norad_id": 58584,
        "name": "ARKTIKA-M 2",
        "group": "weather",
        "lat": -17.001591126813697,
        "lon": 4.854445625043855,
        "alt_km": 4906.768585350547,
        "timestamp": "2025-12-02T19:35:50.205668+00:00",
        "meta_object_name": "ARKTIKA-M 2",
        "meta_object_id": "2023-198A",
        "meta_epoch": "2025-12-01T08:43:04.634112",
        "meta_mean_motion": 2.00605427,
        "meta_eccentricity": 0.68640288,
        "meta_inclination": 63.2218,
        "meta_ra_of_asc_node": 176.1298,
        "meta_arg_of_pericenter": 268.1507,
        "meta_mean_anomaly": 18.8441,
        "meta_ephemeris_type": 0,
        "meta_classification_type": "U",
        "meta_norad_cat_id": 58584,
        "meta_element_set_no": 999,
        "meta_rev_at_epoch": 1435,
        "meta_bstar": 0,
        "meta_mean_motion_dot": 2.37e-06,
        "meta_mean_motion_ddot": 0,
        "tle_line1": "1 58584U 23198A   25335.36324808  .00000237  00000+0  00000+0 0  9995",
        "tle_line2": "2 58584  63.2218 176.1298 6864028 268.1507  18.8441  2.00605427 14356"
      },
      "geometry": {
        "type": "Point",
        "coordinates": [
          4.854445625043855,
          -17.001591126813697
        ]
      }
    },
    {
      "type": "Feature",
      "properties": {
        "norad_id": 58645,
        "name": "TIANMU-1 11",
        "group": "weather",
        "lat": -72.407932572179,
        "lon": 152.5519421464044,
        "alt_km": 500.4515679414917,
        "timestamp": "2025-12-02T19:35:50.205680+00:00",
        "meta_object_name": "TIANMU-1 11",
        "meta_object_id": "2023-205A",
        "meta_epoch": "2025-12-02T12:11:03.941664",
        "meta_mean_motion": 15.24401264,
        "meta_eccentricity": 0.0008943,
        "meta_inclination": 97.3616,
        "meta_ra_of_asc_node": 356.3126,
        "meta_arg_of_pericenter": 350.2821,
        "meta_mean_anomaly": 9.8243,
        "meta_ephemeris_type": 0,
        "meta_classification_type": "U",
        "meta_norad_cat_id": 58645,
        "meta_element_set_no": 999,
        "meta_rev_at_epoch": 10753,
        "meta_bstar": 0.00029902,
        "meta_mean_motion_dot": 7.267e-05,
        "meta_mean_motion_ddot": 0,
        "tle_line1": "1 58645U 23205A   25336.50768451  .00007267  00000+0  29902-3 0  9991",
        "tle_line2": "2 58645  97.3616 356.3126 0008943 350.2821   9.8243 15.24401264107534"
      },
      "geometry": {
        "type": "Point",
        "coordinates": [
          152.5519421464044,
          -72.407932572179
        ]
      }
    },
    {
      "type": "Feature",
      "properties": {
        "norad_id": 58646,
        "name": "TIANMU-1 12",
        "group": "weather",
        "lat": 68.76275124266076,
        "lon": -164.1475518229651,
        "alt_km": 489.4268730387075,
        "timestamp": "2025-12-02T19:35:50.205694+00:00",
        "meta_object_name": "TIANMU-1 12",
        "meta_object_id": "2023-205B",
        "meta_epoch": "2025-12-02T12:48:53.470944",
        "meta_mean_motion": 15.24314598,
        "meta_eccentricity": 0.0006722,
        "meta_inclination": 97.3603,
        "meta_ra_of_asc_node": 356.1471,
        "meta_arg_of_pericenter": 336.1556,
        "meta_mean_anomaly": 23.9369,
        "meta_ephemeris_type": 0,
        "meta_classification_type": "U",
        "meta_norad_cat_id": 58646,
        "meta_element_set_no": 999,
        "meta_rev_at_epoch": 10752,
        "meta_bstar": 0.0003516,
        "meta_mean_motion_dot": 8.533e-05,
        "meta_mean_motion_ddot": 0,
        "tle_line1": "1 58646U 23205B   25336.53395221  .00008533  00000+0  35160-3 0  9996",
        "tle_line2": "2 58646  97.3603 356.1471 0006722 336.1556  23.9369 15.24314598107521"
      },
      "geometry": {
        "type": "Point",
        "coordinates": [
          -164.1475518229651,
          68.76275124266076
        ]
      }
    }
  ]
}